$$SOE
2460728.500000000, A.D. 2025-Feb-22 00:00:00.0000, -1.545790310675932E+08, 3.535450788004812E+08, -1.022984404719582E+07,
2460735.500000000, A.D. 2025-Mar-01 00:00:00.0000, -1.641261921189248E+08, 3.507511148352649E+08, -9.921167518146306E+06,
2460742.500000000, A.D. 2025-Mar-08 00:00:00.0000, -1.735362010321112E+08, 3.476643200373645E+08, -9.604203470551327E+06,
2460749.500000000, A.D. 2025-Mar-15 00:00:00.0000, -1.828026551602725E+08, 3.442901934788628E+08, -9.279297784404501E+06,
2460756.500000000, A.D. 2025-Mar-22 00:00:00.0000, -1.919193230890526E+08, 3.406342207041953E+08, -8.946791897051781E+06,
2460763.500000000, A.D. 2025-Mar-29 00:00:00.0000, -2.008801344521117E+08, 3.367018724784301E+08, -8.607023122802228E+06,
2460770.500000000, A.D. 2025-Apr-05 00:00:00.0000, -2.096791686097255E+08, 3.324986048459215E+08, -8.260325059502244E+06,
2460777.500000000, A.D. 2025-Apr-12 00:00:00.0000, -2.183106440904754E+08, 3.280298605730176E+08, -7.907027896997884E+06,
2460784.500000000, A.D. 2025-Apr-19 00:00:00.0000, -2.267689089556440E+08, 3.233010710641799E+08, -7.547458681982920E+06,
2460791.500000000, A.D. 2025-Apr-26 00:00:00.0000, -2.350484317896123E+08, 3.183176585217127E+08, -7.181941580287308E+06,
2460798.500000000, A.D. 2025-May-03 00:00:00.0000, -2.431437931797721E+08, 3.130850383459693E+08, -6.810798145212516E+06,
2460805.500000000, A.D. 2025-May-10 00:00:00.0000, -2.510496776360060E+08, 3.076086217663205E+08, -6.434347593715325E+06,
2460812.500000000, A.D. 2025-May-17 00:00:00.0000, -2.587608658929046E+08, 3.018938186466662E+08, -6.052907097115204E+06,
2460819.500000000, A.D. 2025-May-24 00:00:00.0000, -2.662722274019603E+08, 2.959460403985167E+08, -5.666792106700674E+06,
2460826.500000000, A.D. 2025-May-31 00:00:00.0000, -2.735787125785468E+08, 2.897707033023327E+08, -5.276316727118134E+06,
2460833.500000000, A.D. 2025-Jun-07 00:00:00.0000, -2.806753451896089E+08, 2.833732334340131E+08, -4.881794002384186E+06,
2460840.500000000, A.D. 2025-Jun-14 00:00:00.0000, -2.875572172343574E+08, 2.767590725261150E+08, -4.483535952540487E+06,
2460847.500000000, A.D. 2025-Jun-21 00:00:00.0000, -2.942194850867590E+08, 2.699336814914626E+08, -4.081853740128085E+06,
2460854.500000000, A.D. 2025-Jun-28 00:00:00.0000, -3.006573637562024E+08, 2.629025433688216E+08, -3.677058108694732E+06,
2460861.500000000, A.D. 2025-Jul-05 00:00:00.0000, -3.068661207755642E+08, 2.556711678446721E+08, -3.269459778084204E+06,
2460868.500000000, A.D. 2025-Jul-12 00:00:00.0000, -3.128410709021963E+08, 2.482450965501368E+08, -2.859369753711790E+06,
2460875.500000000, A.D. 2025-Jul-19 00:00:00.0000, -3.185775714350019E+08, 2.406299085628518E+08, -2.447099614469513E+06,
2460882.500000000, A.D. 2025-Jul-26 00:00:00.0000, -3.240710179318234E+08, 2.328312260617921E+08, -2.032961803227156E+06,
2460889.500000000, A.D. 2025-Aug-02 00:00:00.0000, -3.293168402582619E+08, 2.248547201626174E+08, -1.617269924293905E+06,
2460896.500000000, A.D. 2025-Aug-09 00:00:00.0000, -3.343104989430318E+08, 2.167061169264869E+08, -1.200339051342085E+06,
2460903.500000000, A.D. 2025-Aug-16 00:00:00.0000, -3.390474817632377E+08, 2.083912034881686E+08, -7.824860581635088E+05,
2460910.500000000, A.D. 2025-Aug-23 00:00:00.0000, -3.435233002690381E+08, 1.999158343301600E+08, -3.640299978531748E+05,
2460917.500000000, A.D. 2025-Aug-30 00:00:00.0000, -3.477334859228116E+08, 1.912859384278647E+08, 5.470749769423902E+04,
2460924.500000000, A.D. 2025-Sep-06 00:00:00.0000, -3.516735872784103E+08, 1.825075282779610E+08, 4.734020096364394E+05,
2460931.500000000, A.D. 2025-Sep-13 00:00:00.0000, -3.553391698832722E+08, 1.735867083420326E+08, 8.917262653318644E+05,
2460938.500000000, A.D. 2025-Sep-20 00:00:00.0000, -3.587258156413997E+08, 1.645296812787572E+08, 1.309349778077655E+06,
2460945.500000000, A.D. 2025-Sep-27 00:00:00.0000, -3.618291205888147E+08, 1.553427550907387E+08, 1.725938350971416E+06,
2460952.500000000, A.D. 2025-Oct-04 00:00:00.0000, -3.646446931166690E+08, 1.460323517399538E+08, 2.141153673716575E+06,
2460959.500000000, A.D. 2025-Oct-11 00:00:00.0000, -3.671681530390585E+08, 1.366050163093501E+08, 2.554652969034106E+06,
2460966.500000000, A.D. 2025-Oct-18 00:00:00.0000, -3.693951312440915E+08, 1.270674264587798E+08, 2.966088640034869E+06,
2460973.500000000, A.D. 2025-Oct-25 00:00:00.0000, -3.713212698108113E+08, 1.174264022076225E+08, 3.375107906710088E+06,
2460980.500000000, A.D. 2025-Nov-01 00:00:00.0000, -3.729422225774056E+08, 1.076889160786861E+08, 3.781352429308981E+06,
2460987.500000000, A.D. 2025-Nov-08 00:00:00.0000, -3.742536561572806E+08, 9.786210358900486E+07, 4.184457912886322E+06,
2460994.500000000, A.D. 2025-Nov-15 00:00:00.0000, -3.752512512953854E+08, 8.795327404623626E+07, 4.584053674464982E+06,
2461001.500000000, A.D. 2025-Nov-22 00:00:00.0000, -3.759307042107881E+08, 7.796992189099336E+07, 4.979762153516140E+06,
2461008.500000000, A.D. 2025-Nov-29 00:00:00.0000, -3.762877281327373E+08, 6.791973974324609E+07, 5.371198472302228E+06,
2461015.500000000, A.D. 2025-Dec-06 00:00:00.0000, -3.763180573665266E+08, 5.781063304034553E+07, 5.757970243757848E+06,
2461022.500000000, A.D. 2025-Dec-13 00:00:00.0000, -3.760174535214309E+08, 4.765073292010505E+07, 6.139677311848206E+06,
2461029.500000000, A.D. 2025-Dec-20 00:00:00.0000, -3.753817104762554E+08, 3.744840839625084E+07, 6.515911188471256E+06,
2461036.500000000, A.D. 2025-Dec-27 00:00:00.0000, -3.744066592271388E+08, 2.721228043651657E+07, 6.886254498502977E+06,
2461043.500000000, A.D. 2026-Jan-03 00:00:00.0000, -3.730881741601454E+08, 1.695123734093670E+07, 7.250280517652958E+06,
2461050.500000000, A.D. 2026-Jan-10 00:00:00.0000, -3.714221807363006E+08, 6.674450753911959E+06, 7.607552738863977E+06,
2461057.500000000, A.D. 2026-Jan-17 00:00:00.0000, -3.694046644630377E+08, -3.608607770407783E+06, 7.957624440353013E+06,
2461064.500000000, A.D. 2026-Jan-24 00:00:00.0000, -3.670316811898830E+08, -1.388814962054798E+07, 8.300038252458125E+06,
2461071.500000000, A.D. 2026-Jan-31 00:00:00.0000, -3.642993688323845E+08, -2.415405140563208E+07, 8.634325723441552E+06,
2461078.500000000, A.D. 2026-Feb-07 00:00:00.0000, -3.612039606033630E+08, -3.439583672390828E+07, 8.960006877354156E+06,
2461085.500000000, A.D. 2026-Feb-14 00:00:00.0000, -3.577417996529492E+08, -4.460265745386215E+07, 9.276589743566873E+06,
2461092.500000000, A.D. 2026-Feb-21 00:00:00.0000, -3.539093548987252E+08, -5.476327401848820E+07, 9.583569874397345E+06,
2461099.500000000, A.D. 2026-Feb-28 00:00:00.0000, -3.497032393146448E+08, -6.486603351073267E+07, 9.880430050195813E+06,
2461106.500000000, A.D. 2026-Mar-07 00:00:00.0000, -3.451202329393048E+08, -7.489884768938416E+07, 1.016664020773654E+07,
2461113.500000000, A.D. 2026-Mar-14 00:00:00.0000, -3.401573080517175E+08, -8.484917325632599E+07, 1.044165715431239E+07,
2461120.500000000, A.D. 2026-Mar-21 00:00:00.0000, -3.348116549721801E+08, -9.470399161384049E+07, 1.070492415023779E+07,
2461127.500000000, A.D. 2026-Mar-28 00:00:00.0000, -3.290807107499891E+08, -1.044497871954205E+08, 1.095587063896409E+07,
2461134.500000000, A.D. 2026-Apr-04 00:00:00.0000, -3.229621916115364E+08, -1.140725254924869E+08, 1.119391211310936E+07,
2461141.500000000, A.D. 2026-Apr-11 00:00:00.0000, -3.164541291860897E+08, -1.235576313312557E+08, 1.141845007520954E+07,
2461148.500000000, A.D. 2026-Apr-18 00:00:00.0000, -3.095549106575303E+08, -1.328899676413309E+08, 1.162887209348428E+07,
2461155.500000000, A.D. 2026-Apr-25 00:00:00.0000, -3.022633231148037E+08, -1.420538149860554E+08, 1.182455196724159E+07,
2461162.500000000, A.D. 2026-May-02 00:00:00.0000, -2.945786023993651E+08, -1.510328522298331E+08, 1.200485001666291E+07,
2461169.500000000, A.D. 2026-May-09 00:00:00.0000, -2.865004866642708E+08, -1.598101388240502E+08, 1.216911350296329E+07,
2461176.500000000, A.D. 2026-May-16 00:00:00.0000, -2.780292746130643E+08, -1.683680990657569E+08, 1.231667718172918E+07,
2461183.500000000, A.D. 2026-May-23 00:00:00.0000, -2.691658887110808E+08, -1.766885078836448E+08, 1.244686409786315E+07,
2461190.500000000, A.D. 2026-May-30 00:00:00.0000, -2.599119457776690E+08, -1.847524785030743E+08, 1.255898687175269E+07,
2461197.500000000, A.D. 2026-Jun-06 00:00:00.0000, -2.502698355803177E+08, -1.925404560438598E+08, 1.265234927425563E+07,
2461204.500000000, A.D. 2026-Jun-13 00:00:00.0000, -2.402428040293856E+08, -2.000322177528645E+08, 1.272624781031851E+07,
2461211.500000000, A.D. 2026-Jun-20 00:00:00.0000, -2.298350416773220E+08, -2.072068779738614E+08, 1.277997364015310E+07,
2461218.500000000, A.D. 2026-Jun-27 00:00:00.0000, -2.190517793347638E+08, -2.140428993602044E+08, 1.281281501330219E+07,
2461225.500000000, A.D. 2026-Jul-04 00:00:00.0000, -2.078993908014486E+08, -2.205181124187336E+08, 1.282406020241313E+07,
2461232.500000000, A.D. 2026-Jul-11 00:00:00.0000, -1.963855023094776E+08, -2.266097449841414E+08, 1.281300095530199E+07,
2461239.500000000, A.D. 2026-Jul-18 00:00:00.0000, -1.845191082524287E+08, -2.322944632133697E+08, 1.277893651385280E+07,
2461246.500000000, A.D. 2026-Jul-25 00:00:00.0000, -1.723106926015335E+08, -2.375484258486716E+08, 1.272117825301999E+07,
2461253.500000000, A.D. 2026-Aug-01 00:00:00.0000, -1.597723550855821E+08, -2.423473536793140E+08, 1.263905498418254E+07,
2461260.500000000, A.D. 2026-Aug-08 00:00:00.0000, -1.469179406949667E+08, -2.466666162411219E+08, 1.253191894860002E+07,
2461267.500000000, A.D. 2026-Aug-15 00:00:00.0000, -1.337631704774807E+08, -2.504813373904414E+08, 1.239915254341449E+07,
2461274.500000000, A.D. 2026-Aug-22 00:00:00.0000, -1.203257723186116E+08, -2.537665206283010E+08, 1.224017598614603E+07,
2461281.500000000, A.D. 2026-Aug-29 00:00:00.0000, -1.066256114017144E+08, -2.564971975640699E+08, 1.205445603851527E+07,
2461288.500000000, A.D. 2026-Sep-05 00:00:00.0000, -9.268481503019634E+07, -2.586486042286763E+08, 1.184151536308618E+07,
2461295.500000000, A.D. 2026-Sep-12 00:00:00.0000, -7.852788554154940E+07, -2.601963842920415E+08, 1.160094247052331E+07,
$$EOE